FLOCK 4BE-17            
1 60492U 24149AA  26204.21139360  .00017250  00000+0  42313-3 0  9990
2 60492  97.3762 287.8877 0004720 126.8308 233.3372 15.40764656107808
FLOCK 4BE-22            
1 60494U 24149AC  26204.22485370  .00025120  00000+0  58428-3 0  9997
2 60494  97.3723 288.1526 0005171 131.8755 228.2934 15.42290731107857
FLOCK 4BE-34            
1 60495U 24149AD  26204.17795893  .00016784  00000+0  39345-3 0  9999
2 60495  97.3766 288.9487 0005393 139.8061 220.3586 15.42137182107871
FLOCK 4BE-32            
1 60497U 24149AF  26204.18608387  .00019087  00000+0  43001-3 0  9996
2 60497  97.3709 288.5300 0005353 136.8434 223.3234 15.43301800107882
FLOCK 4BE-11            
1 60501U 24149AK  26204.22681816  .00019682  00000+0  43160-3 0  9992
2 60501  97.3687 288.8351 0005374 136.9580 223.2090 15.44098653107911
FLOCK 4BE-24            
1 60505U 24149AP  26204.20928948  .00022222  00000+0  48280-3 0  9996
2 60505  97.3699 289.0906 0005559 146.9804 213.1793 15.44349029107927
FLOCK 4BE-29            
1 60509U 24149AT  26204.19247363  .00049504  00000+0  10110-2 0  9995
2 60509  97.3794 290.6454 0004116 157.3326 202.8106 15.46012232107979
FLOCK 4BE-2             
1 60511U 24149AV  26203.20200233  .00077269  00000+0  10795-2 0  9992
2 60511  97.3818 291.5976 0005374 154.8830 205.2687 15.56583896107945
FLOCK 4BE-13            
1 60512U 24149AW  26204.16331916  .00015190  00000+0  34878-3 0  9996
2 60512  97.3710 288.9698 0005493 132.9968 227.1741 15.42782938107913
FLOCK 4BE-27            
1 60513U 24149AX  26204.18453645  .00009907  00000+0  29375-3 0  9998
2 60513  97.3815 286.0653 0004716 157.3006 202.8447 15.35024754107663
FLOCK 4BE-9             
1 60514U 24149AY  26204.18664812  .00018209  00000+0  43122-3 0  9990
2 60514  97.3782 288.8315 0004219 150.1621 209.9868 15.41818969107867
FLOCK 4BE-6             
1 60516U 24149BA  26204.17997276  .00016114  00000+0  39900-3 0  9996
2 60516  97.3776 288.1129 0004918 150.4641 209.6884 15.40491375107816
FLOCK 4BE-14            
1 60517U 24149BB  26204.19376942  .00019396  00000+0  45531-3 0  9992
2 60517  97.3682 288.2986 0005896 152.5483 207.6076 15.42062963107874
FLOCK 4BE-1             
1 60518U 24149BC  26204.17153342  .00020399  00000+0  45281-3 0  9995
2 60518  97.3765 289.6846 0005568 152.3818 207.7727 15.43728639107923
FLOCK 4BE-28            
1 60519U 24149BD  26204.19159171  .00049112  00000+0  97517-3 0  9997
2 60519  97.3734 290.5527 0005575 152.9278 207.2264 15.46827828108005
FLOCK 4BE-5             
1 60559U 24149CV  26204.20141676  .00016830  00000+0  40664-3 0  9996
2 60559  97.3834 288.5706 0004600 149.4959 210.6556 15.41228821107825
